[{"OBJECT_NAME":"STARLINK-4496","OBJECT_ID":"2022-097AA","EPOCH":"2026-03-09T11:59:49.975872","MEAN_MOTION":15.08850041,"ECCENTRICITY":0.0001302,"INCLINATION":53.2157,"RA_OF_ASC_NODE":114.9695,"ARG_OF_PERICENTER":98.6369,"MEAN_ANOMALY":261.4771,"EPHEMERIS_TYPE":0,"CLASSIFICATION_TYPE":"U","NORAD_CAT_ID":53412,"ELEMENT_SET_NO":999,"REV_AT_EPOCH":19862,"BSTAR":0.00052533052,"MEAN_MOTION_DOT":8.085e-5,"MEAN_MOTION_DDOT":0},{"OBJECT_NAME":"PSLV R\/B","OBJECT_ID":"2010-035F","EPOCH":"2026-03-09T21:32:02.806944","MEAN_MOTION":15.11637156,"ECCENTRICITY":0.00120112,"INCLINATION":97.9796,"RA_OF_ASC_NODE":355.2302,"ARG_OF_PERICENTER":197.9598,"MEAN_ANOMALY":162.1208,"EPHEMERIS_TYPE":0,"CLASSIFICATION_TYPE":"U","NORAD_CAT_ID":36800,"ELEMENT_SET_NO":999,"REV_AT_EPOCH":85407,"BSTAR":0.00037264097,"MEAN_MOTION_DOT":6.275e-5,"MEAN_MOTION_DDOT":0}]
